{
    "links": {
        "self": "http://www.neowsapp.com/rest/v1/neo/3774054?api_key=iIulBulltgU6a56xZRHN4H3l9WmuAYTsLGpBGhQ2"
    },
    "id": "3774054",
    "neo_reference_id": "3774054",
    "name": "(2017 HJ2)",
    "designation": "2017 HJ2",
    "nasa_jpl_url": "http://ssd.jpl.nasa.gov/sbdb.cgi?sstr=3774054",
    "absolute_magnitude_h": 25.1,
    "estimated_diameter": {
        "kilometers": {
            "estimated_diameter_min": 0.0253837029,
            "estimated_diameter_max": 0.0567596853
        },
        "meters": {
            "estimated_diameter_min": 25.3837029364,
            "estimated_diameter_max": 56.7596852866
        },
        "miles": {
            "estimated_diameter_min": 0.0157726969,
            "estimated_diameter_max": 0.0352688224
        },
        "feet": {
            "estimated_diameter_min": 83.279867942,
            "estimated_diameter_max": 186.2194458756
        }
    },
    "is_potentially_hazardous_asteroid": false,
    "close_approach_data": [
        {
            "close_approach_date": "1971-05-02",
            "close_approach_date_full": "1971-May-02 06:31",
            "epoch_date_close_approach": 42013860000,
            "relative_velocity": {
                "kilometers_per_second": "20.3631273951",
                "kilometers_per_hour": "73307.2586224316",
                "miles_per_hour": "45550.2796701437"
            },
            "miss_distance": {
                "astronomical": "0.3180235645",
                "lunar": "123.7111665905",
                "kilometers": "47575647.859007615",
                "miles": "29562136.765090487"
            },
            "orbiting_body": "Earth"
        },
        {
            "close_approach_date": "2017-04-12",
            "close_approach_date_full": "2017-Apr-12 19:57",
            "epoch_date_close_approach": 1492027020000,
            "relative_velocity": {
                "kilometers_per_second": "12.273287328",
                "kilometers_per_hour": "44183.8343809688",
                "miles_per_hour": "27454.1164241081"
            },
            "miss_distance": {
                "astronomical": "0.0456989897",
                "lunar": "17.7769069933",
                "kilometers": "6836471.520271939",
                "miles": "4247986.4209491982"
            },
            "orbiting_body": "Earth"
        }
    ],
    "orbital_data": {
        "orbit_id": "4",
        "orbit_determination_date": "2017-05-03 06:20:11",
        "first_observation_date": "2017-04-20",
        "last_observation_date": "2017-05-03",
        "data_arc_in_days": 13,
        "observations_used": 36,
        "orbit_uncertainty": "8",
        "minimum_orbit_intersection": ".0228289",
        "jupiter_tisserand_invariant": "3.892",
        "epoch_osculation": "2457865.5",
        "eccentricity": ".5063043730450717",
        "semi_major_axis": "1.803798319723071",
        "inclination": "7.280274925885282",
        "ascending_node_longitude": "28.00362196474967",
        "orbital_period": "884.8718797494279",
        "perihelion_distance": ".8905273423559279",
        "perihelion_argument": "120.8532440775905",
        "aphelion_distance": "2.717069297090215",
        "perihelion_time": "2457816.782704482794",
        "mean_anomaly": "19.82007428144345",
        "mean_motion": ".4068385584836783",
        "equinox": "J2000",
        "orbit_class": {
            "orbit_class_type": "APO",
            "orbit_class_description": "Near-Earth asteroid orbits which cross the Earth’s orbit similar to that of 1862 Apollo",
            "orbit_class_range": "a (semi-major axis) > 1.0 AU; q (perihelion) < 1.017 AU"
        }
    },
    "is_sentry_object": false
}